[{"OBJECT_NAME":"STARLINK-1403","OBJECT_ID":"2020-035AW","EPOCH":"2026-03-10T00:00:02.999808","MEAN_MOTION":15.19325727,"ECCENTRICITY":0.00024214,"INCLINATION":53.1122,"RA_OF_ASC_NODE":34.9104,"ARG_OF_PERICENTER":86.0749,"MEAN_ANOMALY":53.6572,"EPHEMERIS_TYPE":0,"CLASSIFICATION_TYPE":"U","NORAD_CAT_ID":45701,"ELEMENT_SET_NO":999,"REV_AT_EPOCH":574,"BSTAR":0.080644378,"MEAN_MOTION_DOT":0.01904972,"MEAN_MOTION_DDOT":0},{"OBJECT_NAME":"ERNST","OBJECT_ID":"2024-149BN","EPOCH":"2026-03-09T19:27:38.265120","MEAN_MOTION":15.36382433,"ECCENTRICITY":0.00049076,"INCLINATION":97.3842,"RA_OF_ASC_NODE":151.9807,"ARG_OF_PERICENTER":295.1196,"MEAN_ANOMALY":64.9538,"EPHEMERIS_TYPE":0,"CLASSIFICATION_TYPE":"U","NORAD_CAT_ID":60528,"ELEMENT_SET_NO":999,"REV_AT_EPOCH":8700,"BSTAR":0.00049130979,"MEAN_MOTION_DOT":0.00017377,"MEAN_MOTION_DDOT":0}]
